NORAD_CAT_ID,OBJECT_NAME,OBJECT_TYPE,EPOCH,MEAN_MOTION,ECCENTRICITY,INCLINATION,RA_OF_ASC_NODE,ARG_OF_PERICENTER,MEAN_ANOMALY,BSTAR,MEAN_MOTION_DOT,MEAN_MOTION_DDOT,TLE_LINE0,TLE_LINE1,TLE_LINE2,SEMIMAJOR_AXIS,PERIOD,APOGEE,PERIGEE,DECAYED
55789.0,STARLINK-5815,PAYLOAD,2023-05-14 21:03:15,15.69922711,0.000369,69.9991,312.4163,265.054,95.0235,-2.0455e-06,-4.59e-06,0.0,0 STARLINK-5815,1 55789U 23028BA  23134.87725843 -.00000459  00000-0 -20455-5 0  9997,2 55789  69.9991 312.4163 0003690 265.0540  95.0235 15.69922711 11996,6737.255,91.724,361.606,356.634,0.0
55789.0,STARLINK-5815,PAYLOAD,2023-05-14 22:35:00,15.69921439,0.0003557,69.9994,312.2366,265.4105,94.6684,-1.1249e-06,-3.48e-06,0.0,0 STARLINK-5815,1 55789U 23028BA  23134.94097546 -.00000348  00000-0 -11249-5 0  9995,2 55789  69.9994 312.2366 0003557 265.4105  94.6684 15.69921439 11994,6737.259,91.724,361.52,356.727,0.0
55789.0,STARLINK-5815,PAYLOAD,2023-05-15 12:20:46,15.69918814,0.0003575,69.9993,310.6244,266.1795,93.8992,1.5928e-05,1.702e-05,0.0,0 STARLINK-5815,1 55789U 23028BA  23135.51442948  .00001702  00000-0  15928-4 0  9999,2 55789  69.9993 310.6244 0003575 266.1795  93.8992 15.69918814 12091,6737.266,91.724,361.54,356.723,0.0
55789.0,STARLINK-5815,PAYLOAD,2023-05-15 18:27:46,15.69926244,0.0003495,69.9994,309.9079,262.4988,97.581,1.5639e-05,1.668e-05,0.0,0 STARLINK-5815,1 55789U 23028BA  23135.76929293  .00001668  00000-0  15639-4 0  9999,2 55789  69.9994 309.9079 0003495 262.4988  97.5810 15.69926244 12134,6737.245,91.724,361.465,356.755,0.0
55789.0,STARLINK-5815,PAYLOAD,2023-05-16 12:48:48,15.6992741,0.0003693,70.0,307.7588,263.9866,96.0909,1.3567e-05,1.419e-05,0.0,0 STARLINK-5815,1 55789U 23028BA  23136.53389255  .00001419  00000-0  13567-4 0  9995,2 55789  70.0000 307.7588 0003693 263.9866  96.0909 15.69927410 12259,6737.242,91.724,361.595,356.619,0.0
55789.0,STARLINK-5815,PAYLOAD,2023-05-17 19:23:50,15.69928584,0.0002903,70.0011,304.1798,248.0441,112.0446,1.7081e-05,1.842e-05,0.0,0 STARLINK-5815,1 55789U 23028BA  23137.80822613  .00001842  00000-0  17081-4 0  9991,2 55789  70.0011 304.1798 0002903 248.0441 112.0446 15.69928584 12440,6737.238,91.724,361.059,357.147,0.0
55789.0,STARLINK-5815,PAYLOAD,2023-05-17 20:55:35,15.6993179,0.0003758,69.9968,303.9934,270.4689,89.6076,1.3663e-05,1.431e-05,0.0,0 STARLINK-5815,1 55789U 23028BA  23137.87194204  .00001431  00000-0  13663-4 0  9992,2 55789  69.9968 303.9934 0003758 270.4689  89.6076 15.69931790 12462,6737.229,91.724,361.626,356.562,0.0
55789.0,STARLINK-5815,PAYLOAD,2023-05-18 12:13:07,15.69922034,0.0002977,69.9969,302.2041,261.4165,98.6694,5.2011e-06,4.13e-06,0.0,0 STARLINK-5815,1 55789U 23028BA  23138.50911601  .00000413  00000-0  52011-5 0  9991,2 55789  69.9969 302.2041 0002977 261.4165  98.6694 15.69922034 12552,6737.257,91.724,361.128,357.116,0.0
55789.0,STARLINK-5815,PAYLOAD,2023-05-19 14:12:54,15.6993545,0.0003102,69.997,299.158,268.8695,91.2145,-1.8331e-05,-2.417e-05,0.0,0 STARLINK-5815,1 55789U 23028BA  23139.59229766 -.00002417  00000-0 -18331-4 0  9999,2 55789  69.9970 299.1580 0003102 268.8695  91.2145 15.69935450 12721,6737.219,91.724,361.174,356.994,0.0
55789.0,STARLINK-5815,PAYLOAD,2023-05-19 20:19:54,15.69940644,0.0003106,69.9975,298.4413,268.2589,91.8251,-5.6639e-06,-8.94e-06,0.0,0 STARLINK-5815,1 55789U 23028BA  23139.84715720 -.00000894  00000-0 -56639-5 0  9998,2 55789  69.9975 298.4413 0003106 268.2589  91.8251 15.69940644 12773,6737.204,91.723,361.161,356.976,0.0
55789.0,STARLINK-5815,PAYLOAD,2023-05-20 10:05:40,15.69929424,0.0003721,69.9975,296.8297,272.9064,87.1705,1.0353e-05,1.032e-05,0.0,0 STARLINK-5815,1 55789U 23028BA  23140.42061218  .00001032  00000-0  10353-4 0  9995,2 55789  69.9975 296.8297 0003721 272.9064  87.1705 15.69929424 12852,6737.236,91.724,361.608,356.594,0.0
55789.0,STARLINK-5815,PAYLOAD,2023-05-20 14:40:55,15.69943297,0.0003622,69.9978,296.2912,270.6922,89.3859,2.554e-05,2.862e-05,0.0,0 STARLINK-5815,1 55789U 23028BA  23140.61175034  .00002862  00000-0  25540-4 0  9994,2 55789  69.9978 296.2912 0003622 270.6922  89.3859 15.69943297 12882,6737.196,91.723,361.501,356.621,0.0
55789.0,STARLINK-5815,PAYLOAD,2023-05-20 19:16:10,15.69943584,0.0003563,69.9978,295.7545,273.5064,86.5724,2.5604e-05,2.869e-05,0.0,0 STARLINK-5815,1 55789U 23028BA  23140.80289934  .00002869  00000-0  25604-4 0  9998,2 55789  69.9978 295.7545 0003563 273.5064  86.5724 15.69943584 12925,6737.195,91.723,361.461,356.66,0.0
55789.0,STARLINK-5815,PAYLOAD,2023-05-21 16:40:43,15.6992367,0.0004066,70.0,293.2483,271.0872,88.9858,7.0719e-06,6.37e-06,0.0,0 STARLINK-5815,1 55789U 23028BA  23141.69495256  .00000637  00000-0  70719-5 0  9991,2 55789  70.0000 293.2483 0004066 271.0872  88.9858 15.69923670 13050,6737.252,91.724,361.857,356.378,0.0
55789.0,STARLINK-5815,PAYLOAD,2023-05-21 18:12:29,15.69926238,0.0003661,69.9984,293.0693,270.8812,89.1964,7.6389e-06,7.06e-06,0.0,0 STARLINK-5815,1 55789U 23028BA  23141.75866955  .00000706  00000-0  76389-5 0  9992,2 55789  69.9984 293.0693 0003661 270.8812  89.1964 15.69926238 13076,6737.245,91.724,361.577,356.644,0.0
55789.0,STARLINK-5815,PAYLOAD,2023-05-22 09:29:59,15.6993559,0.0003454,70.0017,291.2771,267.7646,92.3154,1.6129e-05,1.728e-05,0.0,0 STARLINK-5815,1 55789U 23028BA  23142.39583092  .00001728  00000-0  16129-4 0  9991,2 55789  70.0017 291.2771 0003454 267.7646  92.3154 15.69935590 13161,6737.218,91.724,361.41,356.756,0.0
55789.0,STARLINK-5815,PAYLOAD,2023-05-22 11:01:44,15.69935311,0.0003462,70.0016,291.0981,268.4969,91.583,1.6004e-05,1.713e-05,0.0,0 STARLINK-5815,1 55789U 23028BA  23142.45954761  .00001713  00000-0  16004-4 0  9999,2 55789  70.0016 291.0981 0003462 268.4969  91.5830 15.69935311 13181,6737.219,91.724,361.416,356.752,0.0
55789.0,STARLINK-5815,PAYLOAD,2023-05-22 14:05:15,15.69933781,0.0003598,70.0009,290.7386,269.1816,90.8967,1.3442e-05,1.404e-05,0.0,0 STARLINK-5815,1 55789U 23028BA  23142.58698120  .00001404  00000-0  13442-4 0  9997,2 55789  70.0009 290.7386 0003598 269.1816  90.8967 15.69933781 13202,6737.223,91.724,361.513,356.664,0.0
55789.0,STARLINK-5815,PAYLOAD,2023-05-23 16:05:02,15.69930989,0.0003342,69.9986,287.6929,261.7495,98.3322,2.236e-05,2.477e-05,0.0,0 STARLINK-5815,1 55789U 23028BA  23143.67016385  .00002477  00000-0  22360-4 0  9995,2 55789  69.9986 287.6929 0003342 261.7495  98.3322 15.69930989 13361,6737.231,91.724,361.348,356.845,0.0
55789.0,STARLINK-5815,PAYLOAD,2023-05-23 19:08:32,15.69930694,0.0003707,69.9975,287.3346,260.9763,99.1013,1.8e-05,1.953e-05,0.0,0 STARLINK-5815,1 55789U 23028BA  23143.79759874  .00001953  00000-0  18000-4 0  9999,2 55789  69.9975 287.3346 0003707 260.9763  99.1013 15.69930694 13395,6737.232,91.724,361.595,356.6,0.0
55789.0,STARLINK-5815,PAYLOAD,2023-05-24 02:47:19,15.69916305,0.0003213,69.9989,286.4406,266.3722,93.7107,-1.1066e-05,-1.543e-05,0.0,0 STARLINK-5815,1 55789U 23028BA  23144.11619768 -.00001543  00000-0 -11066-4 0  9995,2 55789  69.9989 286.4406 0003213 266.3722  93.7107 15.69916305 13436,6737.273,91.725,361.303,356.974,0.0
55789.0,STARLINK-5815,PAYLOAD,2023-05-25 18:32:51,15.69925831,0.0003787,69.9976,281.7824,267.3095,92.7667,-9.6561e-07,-3.29e-06,0.0,0 STARLINK-5815,1 55789U 23028BA  23145.77282047 -.00000329  00000-0 -96561-6 0  9990,2 55789  69.9976 281.7824 0003787 267.3095  92.7667 15.69925831 13696,6737.246,91.724,361.663,356.56,0.0
55789.0,STARLINK-5815,PAYLOAD,2023-05-26 11:22:08,15.69920955,0.0003537,69.9982,279.8117,269.1596,90.9194,-1.8959e-06,-4.41e-06,0.0,0 STARLINK-5815,1 55789U 23028BA  23146.47371001 -.00000441  00000-0 -18959-5 0  9996,2 55789  69.9982 279.8117 0003537 269.1596  90.9194 15.69920955 13816,6737.26,91.724,361.508,356.742,0.0
55789.0,STARLINK-5815,PAYLOAD,2023-05-26 17:29:08,15.69926428,0.0003429,69.9981,279.0952,270.7233,89.357,1.1812e-05,1.208e-05,0.0,0 STARLINK-5815,1 55789U 23028BA  23146.72857072  .00001208  00000-0  11812-4 0  9991,2 55789  69.9981 279.0952 0003429 270.7233  89.3570 15.69926428 13844,6737.244,91.724,361.42,356.799,0.0
55789.0,STARLINK-5815,PAYLOAD,2023-05-26 19:00:54,15.69904352,0.0003256,69.9983,278.9161,270.3249,89.7574,4.9855e-05,5.781e-05,0.0,0 STARLINK-5815,1 55789U 23028BA  23146.79229443  .00005781  00000-0  49855-4 0  9991,2 55789  69.9983 278.9161 0003256 270.3249  89.7574 15.69904352 13869,6737.308,91.725,361.366,356.979,0.0
55789.0,STARLINK-5815,PAYLOAD,2023-05-27 10:18:24,15.69919526,0.000325,69.9986,277.1247,265.1539,94.9286,2.0123e-05,2.207e-05,0.0,0 STARLINK-5815,1 55789U 23028BA  23147.42945485  .00002207  00000-0  20123-4 0  9990,2 55789  69.9986 277.1247 0003250 265.1539  94.9286 15.69919526 13953,6737.264,91.724,361.319,356.94,0.0
55789.0,STARLINK-5815,PAYLOAD,2023-05-27 17:57:10,15.69922626,0.000332,69.9987,276.2292,266.2094,93.8722,8.8088e-06,8.46e-06,0.0,0 STARLINK-5815,1 55789U 23028BA  23147.74804024  .00000846  00000-0  88088-5 0  9990,2 55789  69.9987 276.2292 0003320 266.2094  93.8722 15.69922626 14016,6737.255,91.724,361.357,356.884,0.0
55789.0,STARLINK-5815,PAYLOAD,2023-05-28 01:35:56,15.69908869,0.0003627,69.9977,275.3333,278.3091,81.7693,3.1476e-05,3.571e-05,0.0,0 STARLINK-5815,1 55789U 23028BA  23148.06662915  .00003571  00000-0  31476-4 0  9993,2 55789  69.9977 275.3333 0003627 278.3091  81.7693 15.69908869 14052,6737.295,91.725,361.603,356.716,0.0
55789.0,STARLINK-5815,PAYLOAD,2023-05-28 18:25:12,15.69929475,0.0003371,69.9986,273.3638,270.5827,89.4982,1.0022e-05,9.93e-06,0.0,0 STARLINK-5815,1 55789U 23028BA  23148.76750459  .00000993  00000-0  10022-4 0  9990,2 55789  69.9986 273.3638 0003371 270.5827  89.4982 15.69929475 14169,6737.236,91.724,361.372,356.83,0.0
55789.0,STARLINK-5815,PAYLOAD,2023-05-29 02:03:58,15.6991751,0.0003237,69.9986,272.4675,272.0508,88.0317,8.3601e-06,7.92e-06,0.0,0 STARLINK-5815,1 55789U 23028BA  23149.08609645  .00000792  00000-0  83601-5 0  9997,2 55789  69.9986 272.4675 0003237 272.0508  88.0317 15.69917510 14214,6737.27,91.725,361.316,356.954,0.0
